NORAD_CAT_ID,OBJECT_NAME,OBJECT_TYPE,EPOCH,MEAN_MOTION,ECCENTRICITY,INCLINATION,RA_OF_ASC_NODE,ARG_OF_PERICENTER,MEAN_ANOMALY,BSTAR,MEAN_MOTION_DOT,MEAN_MOTION_DDOT,TLE_LINE0,TLE_LINE1,TLE_LINE2,SEMIMAJOR_AXIS,PERIOD,APOGEE,PERIGEE,DECAYED
50835.0,STARLINK-3310,PAYLOAD,2022-10-22 01:05:52,15.08843596,0.0002392,53.2179,321.6504,31.7625,328.3511,-1.0062e-05,-4.49e-06,0.0,0 STARLINK-3310,1 50835U 22001AJ  22295.04574372 -.00000449  00000-0 -10062-4 0  9990,2 50835  53.2179 321.6504 0002392  31.7625 328.3511 15.08843596 45136,6917.869000000002,95.437,541.389,538.08,0.0
50835.0,STARLINK-3310,PAYLOAD,2022-10-22 12:13:34,15.08833505,0.0002420999999999,53.2181,319.5694,34.313,325.8018,6.1198e-06,-1.91e-06,0.0,0 STARLINK-3310,1 50835U 22001AJ  22295.50943053 -.00000191  00000-0  61198-5 0  9997,2 50835  53.2181 319.5694 0002421  34.3130 325.8018 15.08833505 45209,6917.9,95.438,541.44,538.09,0.0
50835.0,STARLINK-3310,PAYLOAD,2022-10-22 18:35:07,15.08836126,0.0002420999999999,53.2178,318.3799,34.0722,326.0425,5.9985e-05,6.66e-06,0.0,0 STARLINK-3310,1 50835U 22001AJ  22295.77438784  .00000666  00000-0  59985-4 0  9992,2 50835  53.2178 318.3799 0002421  34.0722 326.0425 15.08836126 43982,6917.892,95.438,541.432,538.082,0.0
50835.0,STARLINK-3310,PAYLOAD,2022-10-23 10:28:57,15.08846432,0.000245,53.2178,315.4058,34.1131,326.0018,0.00014932,2.089e-05,0.0,0 STARLINK-3310,1 50835U 22001AJ  22296.43677704  .00002089  00000-0  14932-3 0  9996,2 50835  53.2178 315.4058 0002450  34.1131 326.0018 15.08846432 45346,6917.861,95.437,541.4209999999998,538.031,0.0
50835.0,STARLINK-3310,PAYLOAD,2022-10-23 13:39:43,15.08846896,0.0002459,53.218,314.8116,35.4749,324.6407,0.00015242,2.139e-05,0.0,0 STARLINK-3310,1 50835U 22001AJ  22296.56925646  .00002139  00000-0  15242-3 0  9992,2 50835  53.2180 314.8116 0002459  35.4749 324.6407 15.08846896 44108,6917.859,95.437,541.425,538.023,0.0
50835.0,STARLINK-3310,PAYLOAD,2022-10-24 08:44:21,15.08843397,0.0001776999999999,53.2173,311.2435,45.1751,314.9385,1.9748e-05,2.6e-07,0.0,0 STARLINK-3310,1 50835U 22001AJ  22297.36413854  .00000026  00000-0  19748-4 0  9993,2 50835  53.2173 311.2435 0001777  45.1751 314.9385 15.08843397 44221,6917.87,95.437,540.964,538.506,0.0
50835.0,STARLINK-3310,PAYLOAD,2022-10-24 18:16:41,15.08825217,0.0002517,53.2182,309.459,37.2425,322.8742,-4.6236e-05,-1.024e-05,0.0,0 STARLINK-3310,1 50835U 22001AJ  22297.76159637 -.00001024  00000-0 -46236-4 0  9996,2 50835  53.2182 309.4590 0002517  37.2425 322.8742 15.08825217 44287,6917.926,95.438,541.5319999999998,538.049,0.0
50835.0,STARLINK-3310,PAYLOAD,2022-10-25 10:10:32,15.08837186,0.0002673,53.2176,306.4855,37.0361,323.0815,-8.5588e-05,-1.65e-05,0.0,0 STARLINK-3310,1 50835U 22001AJ  22298.42399226 -.00001650  00000-0 -85588-4 0  9998,2 50835  53.2176 306.4855 0002673  37.0361 323.0815 15.08837186 44384,6917.889,95.438,541.6030000000002,537.905,0.0
50835.0,STARLINK-3310,PAYLOAD,2022-10-26 11:36:42,15.0883593,0.0002243,53.2178,301.7275,40.8618,319.2542,0.00023002,3.374e-05,0.0,0 STARLINK-3310,1 50835U 22001AJ  22299.48382317  .00003374  00000-0  23002-3 0  9993,2 50835  53.2178 301.7275 0002243  40.8618 319.2542 15.08835930 44547,6917.893,95.438,541.31,538.206,0.0
50835.0,STARLINK-3310,PAYLOAD,2022-10-27 09:52:06,15.08843158,0.0002569,53.2179,297.565,38.4575,321.6599,0.00012196,1.653e-05,0.0,0 STARLINK-3310,1 50835U 22001AJ  22300.41118537  .00001653  00000-0  12196-3 0  9990,2 50835  53.2179 297.5650 0002569  38.4575 321.6599 15.08843158 44688,6917.871,95.437,541.513,537.9590000000002,0.0
50835.0,STARLINK-3310,PAYLOAD,2022-10-28 06:32:06,15.08850494,0.0002592,53.2178,293.6992,39.549,320.5691,4.3848e-05,4.1e-06,0.0,0 STARLINK-3310,1 50835U 22001AJ  22301.27230114  .00000410  00000-0  43848-4 0  9990,2 50835  53.2178 293.6992 0002592  39.5490 320.5691 15.08850494 46074,6917.848000000001,95.437,541.506,537.92,0.0
50835.0,STARLINK-3310,PAYLOAD,2022-10-28 09:42:53,15.08842022,0.0002618999999999,53.2181,293.1051,38.0102,322.1075,5.546800000000001e-05,5.94e-06,0.0,0 STARLINK-3310,1 50835U 22001AJ  22301.40478598  .00000594  00000-0  55468-4 0  9999,2 50835  53.2181 293.1051 0002619  38.0102 322.1075 15.08842022 44837,6917.874,95.437,541.5509999999998,537.927,0.0
50835.0,STARLINK-3310,PAYLOAD,2022-10-28 16:04:26,15.08842037,0.0002596,53.218,291.9154,38.4403,321.6774,-4.0886e-05,-9.39e-06,0.0,0 STARLINK-3310,1 50835U 22001AJ  22301.66974777 -.00000939  00000-0 -40886-4 0  9990,2 50835  53.2180 291.9154 0002596  38.4403 321.6774 15.08842037 44878,6917.874,95.437,541.535,537.943,0.0
50835.0,STARLINK-3310,PAYLOAD,2022-10-29 06:22:53,15.08848714,0.0002569999999999,53.2174,289.2368,33.3621,326.7532,7.166300000000001e-05,8.53e-06,0.0,0 STARLINK-3310,1 50835U 22001AJ  22302.26589795  .00000853  00000-0  71663-4 0  9999,2 50835  53.2174 289.2368 0002570  33.3621 326.7532 15.08848714 46223,6917.854,95.437,541.497,537.941,0.0
50835.0,STARLINK-3310,PAYLOAD,2022-10-29 07:58:17,15.08845238,0.0002673,53.2181,288.9393,36.1105,324.0067,3.8787e-05,3.29e-06,0.0,0 STARLINK-3310,1 50835U 22001AJ  22302.33214130  .00000329  00000-0  38787-4 0  9993,2 50835  53.2181 288.9393 0002673  36.1105 324.0067 15.08845238 44979,6917.864000000001,95.437,541.5790000000002,537.88,0.0
50835.0,STARLINK-3310,PAYLOAD,2022-10-30 09:24:27,15.08844011,0.0002751,53.2176,284.1821,35.1927,324.9246,-1.564e-06,-3.13e-06,0.0,0 STARLINK-3310,1 50835U 22001AJ  22303.39198122 -.00000313  00000-0 -15640-5 0  9991,2 50835  53.2176 284.1821 0002751  35.1927 324.9246 15.08844011 45130,6917.868,95.437,541.636,537.83,0.0
50835.0,STARLINK-3310,PAYLOAD,2022-10-30 22:07:32,15.08838111,0.0002763,53.2187,281.7994,34.0645,326.0524,1.8515e-05,6e-08,0.0,0 STARLINK-3310,1 50835U 22001AJ  22303.92190408  .00000006  00000-0  18515-4 0  9999,2 50835  53.2187 281.7994 0002763  34.0645 326.0524 15.08838111 45219,6917.886,95.438,541.663,537.84,0.0
50835.0,STARLINK-3310,PAYLOAD,2022-10-31 10:50:37,15.08841717,0.0002515,53.2187,279.4223,36.0484,324.0677,-2.7881e-05,-7.32e-06,0.0,0 STARLINK-3310,1 50835U 22001AJ  22304.45182351 -.00000732  00000-0 -27881-4 0  9990,2 50835  53.2187 279.4223 0002515  36.0484 324.0677 15.08841717 46557,6917.875,95.437,541.48,538.0,0.0
50835.0,STARLINK-3310,PAYLOAD,2022-11-01 12:16:47,15.08840884,0.0002254,53.2182,274.6667,36.1208,323.9937,-2.8225e-05,-7.38e-06,0.0,0 STARLINK-3310,1 50835U 22001AJ  22305.51166413 -.00000738  00000-0 -28225-4 0  9998,2 50835  53.2182 274.6667 0002254  36.1208 323.9937 15.08840884 45455,6917.878000000002,95.437,541.302,538.183,0.0
50835.0,STARLINK-3310,PAYLOAD,2022-11-01 15:27:33,15.08839008,0.0002266,53.2182,274.072,35.5515,324.5628,7.6607e-05,9.31e-06,0.0,0 STARLINK-3310,1 50835U 22001AJ  22305.64414298  .00000931  00000-0  76607-4 0  9999,2 50835  53.2182 274.0720 0002266  35.5515 324.5628 15.08839008 45478,6917.8830000000025,95.438,541.316,538.181,0.0
50835.0,STARLINK-3310,PAYLOAD,2022-11-02 04:10:38,15.08843565,0.0002177,53.2185,271.6922,37.3795,322.7348,0.00013515,1.864e-05,0.0,0 STARLINK-3310,1 50835U 22001AJ  22306.17405879  .00001864  00000-0  13515-3 0  9997,2 50835  53.2185 271.6922 0002177  37.3795 322.7348 15.08843565 45550,6917.869000000002,95.437,541.241,538.2280000000002,0.0
50835.0,STARLINK-3310,PAYLOAD,2022-11-02 15:18:21,15.08830405,0.0002391,53.2179,269.6122,35.3477,324.7674,-3.3581e-05,-8.23e-06,0.0,0 STARLINK-3310,1 50835U 22001AJ  22306.63775368 -.00000823  00000-0 -33581-4 0  9993,2 50835  53.2179 269.6122 0002391  35.3477 324.7674 15.08830405 46885,6917.91,95.438,541.429,538.121,0.0
50835.0,STARLINK-3310,PAYLOAD,2022-11-03 04:01:27,15.08801683,0.0002437,53.2181,267.2329,40.9795,319.138,0.00039193,5.948e-05,0.0,0 STARLINK-3310,1 50835U 22001AJ  22307.16768185  .00005948  00000-0  39193-3 0  9996,2 50835  53.2181 267.2329 0002437  40.9795 319.1380 15.08801683 46964,6917.998000000001,95.44,541.548,538.177,0.0
50835.0,STARLINK-3310,PAYLOAD,2022-11-03 07:12:14,15.08759515,0.0002646,53.2183,266.6375,45.0724,315.0483,0.0010954,0.0001715,0.0,0 STARLINK-3310,1 50835U 22001AJ  22307.30017336  .00017150  00000-0  10954-2 0  9998,2 50835  53.2183 266.6375 0002646  45.0724 315.0483 15.08759515 46987,6918.126,95.443,541.822,538.161,0.0
50835.0,STARLINK-3310,PAYLOAD,2022-11-04 02:16:48,15.088587400000002,0.0001979,53.2187,263.0688,39.795,320.3187,0.00016943,2.411e-05,0.0,0 STARLINK-3310,1 50835U 22001AJ  22308.09501070  .00002411  00000-0  16943-3 0  9997,2 50835  53.2187 263.0688 0001979  39.7950 320.3187 15.08858740 47103,6917.823,95.436,541.057,538.319,0.0
50835.0,STARLINK-3310,PAYLOAD,2022-11-04 07:02:58,15.08853872,0.0001953,53.2173,262.1809,32.9806,327.1308,0.00018066,2.589e-05,0.0,0 STARLINK-3310,1 50835U 22001AJ  22308.29373303  .00002589  00000-0  18066-3 0  9999,2 50835  53.2173 262.1809 0001953  32.9806 327.1308 15.08853872 47134,6917.8380000000025,95.437,541.054,538.352,0.0
50835.0,STARLINK-3310,PAYLOAD,2022-11-04 21:21:27,15.08837998,0.0002091,53.2179,259.5005,40.228,319.8867,0.0001312,1.8e-05,0.0,0 STARLINK-3310,1 50835U 22001AJ  22308.88990345  .00001800  00000-0  13120-3 0  9996,2 50835  53.2179 259.5005 0002091  40.2280 319.8867 15.08837998 45968,6917.887,95.438,541.198,538.305,0.0
50835.0,STARLINK-3310,PAYLOAD,2022-11-05 03:43:00,15.088394,0.0002239,53.2171,258.3131,32.3427,327.7702,6.1792e-05,6.95e-06,0.0,0 STARLINK-3310,1 50835U 22001AJ  22309.15486438  .00000695  00000-0  61792-4 0  9990,2 50835  53.2171 258.3131 0002239  32.3427 327.7702 15.08839400 47267,6917.882,95.438,541.2959999999998,538.198,0.0
50835.0,STARLINK-3310,PAYLOAD,2022-11-05 13:15:20,15.088247699999998,0.0002093,53.2185,256.5317,37.7924,322.3215,-0.00016168,-2.859e-05,0.0,0 STARLINK-3310,1 50835U 22001AJ  22309.55232260 -.00002859  00000-0 -16168-3 0  9998,2 50835  53.2185 256.5317 0002093  37.7924 322.3215 15.08824770 46068,6917.927,95.439,541.24,538.344,0.0
